0 DELTA 1 DEB
1 21542U 75052GW  13281.98301579  .00000161  00000-0  39582-3 0  4320
2 21542 100.1553 033.7591 0051292 227.3476 185.1127 13.36724332 93853
0 DELTA 1 DEB
1 21542U 75052GW  13286.99761612  .00000179  00000-0  43078-3 0  4340
2 21542 100.1562 038.7515 0051486 215.5513 196.2580 13.36726605 94526
0 DELTA 1 DEB
1 21542U 75052GW  13289.23861848  .00000187  00000-0  44575-3 0  4355
2 21542 100.1564 040.9829 0051554 210.3002 180.3514 13.36727960 94822
0 DELTA 1 DEB
1 21542U 75052GW  13291.25936127  .00000207  00000-0  48356-3 0  4368
2 21542 100.1563 042.9950 0051613 205.5631 184.5276 13.36728844 95091
0 DELTA 1 DEB
1 21542U 75052GW  13293.28012193  .00000219  00000-0  50613-3 0  4374
2 21542 100.1563 045.0072 0051665 200.8296 188.7926 13.36729684 95363
0 DELTA 1 DEB
1 21542U 75052GW  13295.30004552  .00000215  00000-0  49793-3 0  4383
2 21542 100.1562 047.0183 0051707 196.0939 189.0408 13.36730804 95639
